{
  "type": "FeatureCollection",
  "features": [
    {
      "type": "Feature",
      "properties": {
        "norad_id": 31177,
        "name": "FENGYUN 1C DEB",
        "group": "fengyun-1c-debris",
        "lat": 1.92714533333037,
        "lon": 80.52060934630946,
        "alt_km": 1190.9590212712383,
        "timestamp": "2025-12-12T18:57:44.410615+00:00",
        "meta_object_name": "FENGYUN 1C DEB",
        "meta_object_id": "1999-025BJF",
        "meta_epoch": "2025-12-08T17:24:07.966080",
        "meta_mean_motion": 13.622528,
        "meta_eccentricity": 0.0310599,
        "meta_inclination": 98.7576,
        "meta_ra_of_asc_node": 256.5653,
        "meta_arg_of_pericenter": 324.298,
        "meta_mean_anomaly": 91.0785,
        "meta_ephemeris_type": 0,
        "meta_classification_type": "U",
        "meta_norad_cat_id": 31177,
        "meta_element_set_no": 999,
        "meta_rev_at_epoch": 66157,
        "meta_bstar": 0.0076571,
        "meta_mean_motion_dot": 8.152e-05,
        "meta_mean_motion_ddot": 0,
        "tle_line1": "1 31177U 99025BJF 25342.72509220  .00008152  00000+0  76571-2 0  9990",
        "tle_line2": "2 31177  98.7576 256.5653 0310599 324.2980  91.0785 13.62252800661574"
      },
      "geometry": {
        "type": "Point",
        "coordinates": [
          80.52060934630946,
          1.92714533333037
        ]
      }
    },
    {
      "type": "Feature",
      "properties": {
        "norad_id": 31178,
        "name": "FENGYUN 1C DEB",
        "group": "fengyun-1c-debris",
        "lat": -79.09441922661892,
        "lon": 108.52684318092989,
        "alt_km": 767.1736168574462,
        "timestamp": "2025-12-12T18:57:44.410625+00:00",
        "meta_object_name": "FENGYUN 1C DEB",
        "meta_object_id": "1999-025BJG",
        "meta_epoch": "2025-12-11T19:45:43.374816",
        "meta_mean_motion": 14.22194156,
        "meta_eccentricity": 0.01260231,
        "meta_inclination": 99.5138,
        "meta_ra_of_asc_node": 347.9876,
        "meta_arg_of_pericenter": 318.1578,
        "meta_mean_anomaly": 41.0016,
        "meta_ephemeris_type": 0,
        "meta_classification_type": "U",
        "meta_norad_cat_id": 31178,
        "meta_element_set_no": 999,
        "meta_rev_at_epoch": 95802,
        "meta_bstar": 0.0030916336,
        "meta_mean_motion_dot": 7.391e-05,
        "meta_mean_motion_ddot": 0,
        "tle_line1": "1 31178U 99025BJG 25345.82341869  .00007391  00000+0  30916-2 0  9995",
        "tle_line2": "2 31178  99.5138 347.9876 0126023 318.1578  41.0016 14.22194156958029"
      },
      "geometry": {
        "type": "Point",
        "coordinates": [
          108.52684318092989,
          -79.09441922661892
        ]
      }
    },
    {
      "type": "Feature",
      "properties": {
        "norad_id": 31179,
        "name": "FENGYUN 1C DEB",
        "group": "fengyun-1c-debris",
        "lat": 65.9389569614756,
        "lon": -152.44701230601265,
        "alt_km": 970.545007824403,
        "timestamp": "2025-12-12T18:57:44.410635+00:00",
        "meta_object_name": "FENGYUN 1C DEB",
        "meta_object_id": "1999-025BJH",
        "meta_epoch": "2025-12-05T07:01:13.321920",
        "meta_mean_motion": 13.91889906,
        "meta_eccentricity": 0.0215815,
        "meta_inclination": 99.0199,
        "meta_ra_of_asc_node": 359.4166,
        "meta_arg_of_pericenter": 21.1371,
        "meta_mean_anomaly": 339.8541,
        "meta_ephemeris_type": 0,
        "meta_classification_type": "U",
        "meta_norad_cat_id": 31179,
        "meta_element_set_no": 999,
        "meta_rev_at_epoch": 61837,
        "meta_bstar": 0.0018729323,
        "meta_mean_motion_dot": 2.844e-05,
        "meta_mean_motion_ddot": 0,
        "tle_line1": "1 31179U 99025BJH 25339.29251530  .00002844  00000+0  18729-2 0  9991",
        "tle_line2": "2 31179  99.0199 359.4166 0215815  21.1371 339.8541 13.91889906618373"
      },
      "geometry": {
        "type": "Point",
        "coordinates": [
          -152.44701230601265,
          65.9389569614756
        ]
      }
    },
    {
      "type": "Feature",
      "properties": {
        "norad_id": 31180,
        "name": "FENGYUN 1C DEB",
        "group": "fengyun-1c-debris",
        "lat": -36.916376798315035,
        "lon": -68.679730538181,
        "alt_km": 1341.4450052730663,
        "timestamp": "2025-12-12T18:57:44.410646+00:00",
        "meta_object_name": "FENGYUN 1C DEB",
        "meta_object_id": "1999-025BJJ",
        "meta_epoch": "2025-12-11T05:40:55.282080",
        "meta_mean_motion": 13.70340375,
        "meta_eccentricity": 0.049829,
        "meta_inclination": 99.2175,
        "meta_ra_of_asc_node": 116.8316,
        "meta_arg_of_pericenter": 63.9597,
        "meta_mean_anomaly": 52.2267,
        "meta_ephemeris_type": 0,
        "meta_classification_type": "U",
        "meta_norad_cat_id": 31180,
        "meta_element_set_no": 999,
        "meta_rev_at_epoch": 64046,
        "meta_bstar": 0.00029125687,
        "meta_mean_motion_dot": 5.8e-06,
        "meta_mean_motion_ddot": 0,
        "tle_line1": "1 31180U 99025BJJ 25345.23675095  .00000580  00000+0  29126-3 0  9999",
        "tle_line2": "2 31180  99.2175 116.8316 0498290  63.9597  52.2267 13.70340375640462"
      },
      "geometry": {
        "type": "Point",
        "coordinates": [
          -68.679730538181,
          -36.916376798315035
        ]
      }
    },
    {
      "type": "Feature",
      "properties": {
        "norad_id": 31181,
        "name": "FENGYUN 1C DEB",
        "group": "fengyun-1c-debris",
        "lat": 67.32429113074932,
        "lon": -138.96631009419718,
        "alt_km": 818.4313693060576,
        "timestamp": "2025-12-12T18:57:44.410656+00:00",
        "meta_object_name": "FENGYUN 1C DEB",
        "meta_object_id": "1999-025BJK",
        "meta_epoch": "2025-12-06T13:29:50.146080",
        "meta_mean_motion": 14.11856129,
        "meta_eccentricity": 0.00481542,
        "meta_inclination": 98.7747,
        "meta_ra_of_asc_node": 13.2463,
        "meta_arg_of_pericenter": 91.6254,
        "meta_mean_anomaly": 62.7516,
        "meta_ephemeris_type": 0,
        "meta_classification_type": "U",
        "meta_norad_cat_id": 31181,
        "meta_element_set_no": 999,
        "meta_rev_at_epoch": 95680,
        "meta_bstar": 0.0016824405,
        "meta_mean_motion_dot": 3.063e-05,
        "meta_mean_motion_ddot": 0,
        "tle_line1": "1 31181U 99025BJK 25340.56238595  .00003063  00000+0  16824-2 0  9990",
        "tle_line2": "2 31181  98.7747  13.2463 0048154  91.6254  62.7516 14.11856129956809"
      },
      "geometry": {
        "type": "Point",
        "coordinates": [
          -138.96631009419718,
          67.32429113074932
        ]
      }
    },
    {
      "type": "Feature",
      "properties": {
        "norad_id": 31182,
        "name": "FENGYUN 1C DEB",
        "group": "fengyun-1c-debris",
        "lat": -79.31504782114126,
        "lon": 101.59056525392664,
        "alt_km": 861.2770287113581,
        "timestamp": "2025-12-12T18:57:44.410666+00:00",
        "meta_object_name": "FENGYUN 1C DEB",
        "meta_object_id": "1999-025BJL",
        "meta_epoch": "2025-12-09T05:08:12.053760",
        "meta_mean_motion": 14.14545929,
        "meta_eccentricity": 0.0023077,
        "meta_inclination": 98.6814,
        "meta_ra_of_asc_node": 332.187,
        "meta_arg_of_pericenter": 146.444,
        "meta_mean_anomaly": 276.6011,
        "meta_ephemeris_type": 0,
        "meta_classification_type": "U",
        "meta_norad_cat_id": 31182,
        "meta_element_set_no": 999,
        "meta_rev_at_epoch": 96031,
        "meta_bstar": 0.00059768,
        "meta_mean_motion_dot": 1.107e-05,
        "meta_mean_motion_ddot": 0,
        "tle_line1": "1 31182U 99025BJL 25343.21402840  .00001107  00000+0  59768-3 0  9994",
        "tle_line2": "2 31182  98.6814 332.1870 0023077 146.4440 276.6011 14.14545929960315"
      },
      "geometry": {
        "type": "Point",
        "coordinates": [
          101.59056525392664,
          -79.31504782114126
        ]
      }
    },
    {
      "type": "Feature",
      "properties": {
        "norad_id": 31183,
        "name": "FENGYUN 1C DEB",
        "group": "fengyun-1c-debris",
        "lat": -2.361215789149005,
        "lon": 150.1577275342683,
        "alt_km": 718.5912190876979,
        "timestamp": "2025-12-12T18:57:44.410676+00:00",
        "meta_object_name": "FENGYUN 1C DEB",
        "meta_object_id": "1999-025BJM",
        "meta_epoch": "2025-12-12T05:11:08.156832",
        "meta_mean_motion": 14.50428357,
        "meta_eccentricity": 0.00474882,
        "meta_inclination": 99.0365,
        "meta_ra_of_asc_node": 329.9181,
        "meta_arg_of_pericenter": 108.9889,
        "meta_mean_anomaly": 317.1431,
        "meta_ephemeris_type": 0,
        "meta_classification_type": "U",
        "meta_norad_cat_id": 31183,
        "meta_element_set_no": 999,
        "meta_rev_at_epoch": 97475,
        "meta_bstar": 0.0019094587,
        "meta_mean_motion_dot": 7.526e-05,
        "meta_mean_motion_ddot": 0,
        "tle_line1": "1 31183U 99025BJM 25346.21606663  .00007526  00000+0  19095-2 0  9996",
        "tle_line2": "2 31183  99.0365 329.9181 0047488 108.9889 317.1431 14.50428357974758"
      },
      "geometry": {
        "type": "Point",
        "coordinates": [
          150.1577275342683,
          -2.361215789149005
        ]
      }
    }
  ]
}